[{"OBJECT_NAME":"STARLINK-30598","OBJECT_ID":"2023-160E","EPOCH":"2026-03-09T02:01:36.543936","MEAN_MOTION":15.27576958,"ECCENTRICITY":4.243e-5,"INCLINATION":42.999,"RA_OF_ASC_NODE":81.2724,"ARG_OF_PERICENTER":309.5491,"MEAN_ANOMALY":50.5323,"EPHEMERIS_TYPE":0,"CLASSIFICATION_TYPE":"U","NORAD_CAT_ID":58079,"ELEMENT_SET_NO":999,"REV_AT_EPOCH":13285,"BSTAR":1.0999071e-5,"MEAN_MOTION_DOT":4.1e-7,"MEAN_MOTION_DDOT":0},{"OBJECT_NAME":"TIANMU-1 16","OBJECT_ID":"2024-004B","EPOCH":"2026-03-09T23:11:35.492064","MEAN_MOTION":15.25874833,"ECCENTRICITY":0.00051977,"INCLINATION":97.4617,"RA_OF_ASC_NODE":254.5267,"ARG_OF_PERICENTER":355.4475,"MEAN_ANOMALY":4.6715,"EPHEMERIS_TYPE":0,"CLASSIFICATION_TYPE":"U","NORAD_CAT_ID":58701,"ELEMENT_SET_NO":999,"REV_AT_EPOCH":12064,"BSTAR":0.00031061517,"MEAN_MOTION_DOT":7.887e-5,"MEAN_MOTION_DDOT":0}]
